{
  "type": "FeatureCollection",
  "features": [
    {
      "type": "Feature",
      "properties": {
        "norad_id": 31047,
        "name": "FENGYUN 1C DEB",
        "group": "fengyun-1c-debris",
        "lat": 20.482784341439164,
        "lon": 179.8555747141096,
        "alt_km": 828.1139359789795,
        "timestamp": "2025-12-25T11:37:44.715608+00:00",
        "meta_object_name": "FENGYUN 1C DEB",
        "meta_object_id": "1999-025BER",
        "meta_epoch": "2025-12-22T12:16:57.847296",
        "meta_mean_motion": 14.13857139,
        "meta_eccentricity": 0.00261016,
        "meta_inclination": 98.7012,
        "meta_ra_of_asc_node": 353.6831,
        "meta_arg_of_pericenter": 150.1278,
        "meta_mean_anomaly": 6.368,
        "meta_ephemeris_type": 0,
        "meta_classification_type": "U",
        "meta_norad_cat_id": 31047,
        "meta_element_set_no": 999,
        "meta_rev_at_epoch": 96497,
        "meta_bstar": 0.00037194236,
        "meta_mean_motion_dot": 6.64e-06,
        "meta_mean_motion_ddot": 0,
        "tle_line1": "1 31047U 99025BER 25356.51178064  .00000664  00000+0  37194-3 0  9995",
        "tle_line2": "2 31047  98.7012 353.6831 0026101 150.1278   6.3680 14.13857139964977"
      },
      "geometry": {
        "type": "Point",
        "coordinates": [
          179.8555747141096,
          20.482784341439164
        ]
      }
    },
    {
      "type": "Feature",
      "properties": {
        "norad_id": 31051,
        "name": "FENGYUN 1C DEB",
        "group": "fengyun-1c-debris",
        "lat": 53.51146338396412,
        "lon": -138.24689585174426,
        "alt_km": 842.8736618374796,
        "timestamp": "2025-12-25T11:37:44.715620+00:00",
        "meta_object_name": "FENGYUN 1C DEB",
        "meta_object_id": "1999-025BEV",
        "meta_epoch": "2025-12-24T19:38:00.414240",
        "meta_mean_motion": 14.03039998,
        "meta_eccentricity": 0.00534769,
        "meta_inclination": 98.8164,
        "meta_ra_of_asc_node": 28.9954,
        "meta_arg_of_pericenter": 102.6706,
        "meta_mean_anomaly": 258.0447,
        "meta_ephemeris_type": 0,
        "meta_classification_type": "U",
        "meta_norad_cat_id": 31051,
        "meta_element_set_no": 999,
        "meta_rev_at_epoch": 63988,
        "meta_bstar": 0.00030067955,
        "meta_mean_motion_dot": 4.31e-06,
        "meta_mean_motion_ddot": 0,
        "tle_line1": "1 31051U 99025BEV 25358.81806035  .00000431  00000+0  30068-3 0  9996",
        "tle_line2": "2 31051  98.8164  28.9954 0053476 102.6706 258.0447 14.03039998639882"
      },
      "geometry": {
        "type": "Point",
        "coordinates": [
          -138.24689585174426,
          53.51146338396412
        ]
      }
    },
    {
      "type": "Feature",
      "properties": {
        "norad_id": 31053,
        "name": "FENGYUN 1C DEB",
        "group": "fengyun-1c-debris",
        "lat": -16.822547840451833,
        "lon": -61.647980095726794,
        "alt_km": 1143.0162217174147,
        "timestamp": "2025-12-25T11:37:44.715630+00:00",
        "meta_object_name": "FENGYUN 1C DEB",
        "meta_object_id": "1999-025BEX",
        "meta_epoch": "2025-12-24T13:45:33.931296",
        "meta_mean_motion": 13.75910871,
        "meta_eccentricity": 0.03086955,
        "meta_inclination": 98.7943,
        "meta_ra_of_asc_node": 120.1919,
        "meta_arg_of_pericenter": 63.3862,
        "meta_mean_anomaly": 299.8565,
        "meta_ephemeris_type": 0,
        "meta_classification_type": "U",
        "meta_norad_cat_id": 31053,
        "meta_element_set_no": 999,
        "meta_rev_at_epoch": 93639,
        "meta_bstar": 0.0012850062,
        "meta_mean_motion_dot": 1.728e-05,
        "meta_mean_motion_ddot": 0,
        "tle_line1": "1 31053U 99025BEX 25358.57330939  .00001728  00000+0  12850-2 0  9994",
        "tle_line2": "2 31053  98.7943 120.1919 0308695  63.3862 299.8565 13.75910871936392"
      },
      "geometry": {
        "type": "Point",
        "coordinates": [
          -61.647980095726794,
          -16.822547840451833
        ]
      }
    },
    {
      "type": "Feature",
      "properties": {
        "norad_id": 31054,
        "name": "FENGYUN 1C DEB",
        "group": "fengyun-1c-debris",
        "lat": -18.93836218874899,
        "lon": -170.88390454652264,
        "alt_km": 859.8130513563874,
        "timestamp": "2025-12-25T11:37:44.715644+00:00",
        "meta_object_name": "FENGYUN 1C DEB",
        "meta_object_id": "1999-025BEY",
        "meta_epoch": "2025-12-25T00:36:44.884800",
        "meta_mean_motion": 14.12176896,
        "meta_eccentricity": 0.0010807,
        "meta_inclination": 98.6897,
        "meta_ra_of_asc_node": 11.6792,
        "meta_arg_of_pericenter": 88.7601,
        "meta_mean_anomaly": 297.8709,
        "meta_ephemeris_type": 0,
        "meta_classification_type": "U",
        "meta_norad_cat_id": 31054,
        "meta_element_set_no": 999,
        "meta_rev_at_epoch": 96937,
        "meta_bstar": 0.00014613,
        "meta_mean_motion_dot": 2.26e-06,
        "meta_mean_motion_ddot": 0,
        "tle_line1": "1 31054U 99025BEY 25359.02551950  .00000226  00000+0  14613-3 0  9996",
        "tle_line2": "2 31054  98.6897  11.6792 0010807  88.7601 297.8709 14.12176896969375"
      },
      "geometry": {
        "type": "Point",
        "coordinates": [
          -170.88390454652264,
          -18.93836218874899
        ]
      }
    },
    {
      "type": "Feature",
      "properties": {
        "norad_id": 31055,
        "name": "FENGYUN 1C DEB",
        "group": "fengyun-1c-debris",
        "lat": -58.82082942344309,
        "lon": -164.39502853697346,
        "alt_km": 847.6231692732163,
        "timestamp": "2025-12-25T11:37:44.715654+00:00",
        "meta_object_name": "FENGYUN 1C DEB",
        "meta_object_id": "1999-025BEZ",
        "meta_epoch": "2025-12-24T00:35:10.853088",
        "meta_mean_motion": 14.10390249,
        "meta_eccentricity": 0.0024258,
        "meta_inclination": 98.7586,
        "meta_ra_of_asc_node": 28.9426,
        "meta_arg_of_pericenter": 238.867,
        "meta_mean_anomaly": 151.5404,
        "meta_ephemeris_type": 0,
        "meta_classification_type": "U",
        "meta_norad_cat_id": 31055,
        "meta_element_set_no": 999,
        "meta_rev_at_epoch": 96281,
        "meta_bstar": 0.00036146031,
        "meta_mean_motion_dot": 6.01e-06,
        "meta_mean_motion_ddot": 0,
        "tle_line1": "1 31055U 99025BEZ 25358.02443117  .00000601  00000+0  36146-3 0  9993",
        "tle_line2": "2 31055  98.7586  28.9426 0024258 238.8670 151.5404 14.10390249962814"
      },
      "geometry": {
        "type": "Point",
        "coordinates": [
          -164.39502853697346,
          -58.82082942344309
        ]
      }
    },
    {
      "type": "Feature",
      "properties": {
        "norad_id": 31056,
        "name": "FENGYUN 1C DEB",
        "group": "fengyun-1c-debris",
        "lat": 22.77684461372938,
        "lon": -22.006494055213544,
        "alt_km": 840.0238008382039,
        "timestamp": "2025-12-25T11:37:44.715666+00:00",
        "meta_object_name": "FENGYUN 1C DEB",
        "meta_object_id": "1999-025BFA",
        "meta_epoch": "2025-12-24T05:13:19.179840",
        "meta_mean_motion": 14.14321482,
        "meta_eccentricity": 0.00250014,
        "meta_inclination": 98.6699,
        "meta_ra_of_asc_node": 340.4372,
        "meta_arg_of_pericenter": 309.9129,
        "meta_mean_anomaly": 105.7726,
        "meta_ephemeris_type": 0,
        "meta_classification_type": "U",
        "meta_norad_cat_id": 31056,
        "meta_element_set_no": 999,
        "meta_rev_at_epoch": 96980,
        "meta_bstar": 0.00034800003,
        "meta_mean_motion_dot": 6.24e-06,
        "meta_mean_motion_ddot": 0,
        "tle_line1": "1 31056U 99025BFA 25358.21758310  .00000624  00000+0  34800-3 0  9999",
        "tle_line2": "2 31056  98.6699 340.4372 0025001 309.9129 105.7726 14.14321482969808"
      },
      "geometry": {
        "type": "Point",
        "coordinates": [
          -22.006494055213544,
          22.77684461372938
        ]
      }
    },
    {
      "type": "Feature",
      "properties": {
        "norad_id": 31057,
        "name": "FENGYUN 1C DEB",
        "group": "fengyun-1c-debris",
        "lat": 18.337057685039277,
        "lon": 37.73204431016546,
        "alt_km": 724.8883212951077,
        "timestamp": "2025-12-25T11:37:44.715677+00:00",
        "meta_object_name": "FENGYUN 1C DEB",
        "meta_object_id": "1999-025BFB",
        "meta_epoch": "2025-12-23T20:35:18.344544",
        "meta_mean_motion": 14.79509399,
        "meta_eccentricity": 0.01376332,
        "meta_inclination": 99.2549,
        "meta_ra_of_asc_node": 38.9584,
        "meta_arg_of_pericenter": 217.07,
        "meta_mean_anomaly": 142.094,
        "meta_ephemeris_type": 0,
        "meta_classification_type": "U",
        "meta_norad_cat_id": 31057,
        "meta_element_set_no": 999,
        "meta_rev_at_epoch": 62117,
        "meta_bstar": 0.0010448205,
        "meta_mean_motion_dot": 9.107e-05,
        "meta_mean_motion_ddot": 0,
        "tle_line1": "1 31057U 99025BFB 25357.85785121  .00009107  00000+0  10448-2 0  9995",
        "tle_line2": "2 31057  99.2549  38.9584 0137633 217.0700 142.0940 14.79509399621176"
      },
      "geometry": {
        "type": "Point",
        "coordinates": [
          37.73204431016546,
          18.337057685039277
        ]
      }
    }
  ]
}